{
    "links": {
        "self": "http://www.neowsapp.com/rest/v1/neo/3468492?api_key=iIulBulltgU6a56xZRHN4H3l9WmuAYTsLGpBGhQ2"
    },
    "id": "3468492",
    "neo_reference_id": "3468492",
    "name": "(2009 SS103)",
    "designation": "2009 SS103",
    "nasa_jpl_url": "http://ssd.jpl.nasa.gov/sbdb.cgi?sstr=3468492",
    "absolute_magnitude_h": 22.4,
    "estimated_diameter": {
        "kilometers": {
            "estimated_diameter_min": 0.0880146521,
            "estimated_diameter_max": 0.1968067451
        },
        "meters": {
            "estimated_diameter_min": 88.0146520901,
            "estimated_diameter_max": 196.8067450894
        },
        "miles": {
            "estimated_diameter_min": 0.0546897524,
            "estimated_diameter_max": 0.122290004
        },
        "feet": {
            "estimated_diameter_min": 288.7619911632,
            "estimated_diameter_max": 645.6914415591
        }
    },
    "is_potentially_hazardous_asteroid": false,
    "close_approach_data": [
        {
            "close_approach_date": "2008-10-19",
            "close_approach_date_full": "2008-Oct-19 18:35",
            "epoch_date_close_approach": 1224441300000,
            "relative_velocity": {
                "kilometers_per_second": "14.4559049964",
                "kilometers_per_hour": "52041.2579872121",
                "miles_per_hour": "32336.4138865541"
            },
            "miss_distance": {
                "astronomical": "0.3172728901",
                "lunar": "123.4191542489",
                "kilometers": "47463348.567704087",
                "miles": "29492357.2211949206"
            },
            "orbiting_body": "Earth"
        },
        {
            "close_approach_date": "2009-09-30",
            "close_approach_date_full": "2009-Sep-30 12:24",
            "epoch_date_close_approach": 1254313440000,
            "relative_velocity": {
                "kilometers_per_second": "12.7967385362",
                "kilometers_per_hour": "46068.2587304258",
                "miles_per_hour": "28625.0244316915"
            },
            "miss_distance": {
                "astronomical": "0.2677761615",
                "lunar": "104.1649268235",
                "kilometers": "40058743.397176005",
                "miles": "24891348.919818669"
            },
            "orbiting_body": "Earth"
        },
        {
            "close_approach_date": "2010-09-07",
            "close_approach_date_full": "2010-Sep-07 21:47",
            "epoch_date_close_approach": 1283896020000,
            "relative_velocity": {
                "kilometers_per_second": "12.750344334",
                "kilometers_per_hour": "45901.2396024947",
                "miles_per_hour": "28521.2452407834"
            },
            "miss_distance": {
                "astronomical": "0.3493391632",
                "lunar": "135.8929344848",
                "kilometers": "52260394.722302384",
                "miles": "32473103.4826215392"
            },
            "orbiting_body": "Earth"
        }
    ],
    "orbital_data": {
        "orbit_id": "6",
        "orbit_determination_date": "2017-04-06 08:59:49",
        "first_observation_date": "2009-09-25",
        "last_observation_date": "2009-09-26",
        "data_arc_in_days": 1,
        "observations_used": 20,
        "orbit_uncertainty": "9",
        "minimum_orbit_intersection": ".213234",
        "jupiter_tisserand_invariant": "5.782",
        "epoch_osculation": "2455100.5",
        "eccentricity": ".2611408294714085",
        "semi_major_axis": "1.042367859131667",
        "inclination": "23.8839774995606",
        "ascending_node_longitude": "358.9646886592326",
        "orbital_period": "388.7137868201116",
        "perihelion_distance": ".7701630517836872",
        "perihelion_argument": "159.3986632134807",
        "aphelion_distance": "1.314572666479647",
        "perihelion_time": "2455250.151593168233",
        "mean_anomaly": "221.4029772875129",
        "mean_motion": ".9261312878686248",
        "equinox": "J2000",
        "orbit_class": {
            "orbit_class_type": "APO",
            "orbit_class_description": "Near-Earth asteroid orbits which cross the Earth’s orbit similar to that of 1862 Apollo",
            "orbit_class_range": "a (semi-major axis) > 1.0 AU; q (perihelion) < 1.017 AU"
        }
    },
    "is_sentry_object": false
}